NORAD_CAT_ID,OBJECT_NAME,OBJECT_TYPE,EPOCH,MEAN_MOTION,ECCENTRICITY,INCLINATION,RA_OF_ASC_NODE,ARG_OF_PERICENTER,MEAN_ANOMALY,BSTAR,MEAN_MOTION_DOT,MEAN_MOTION_DDOT,TLE_LINE0,TLE_LINE1,TLE_LINE2,SEMIMAJOR_AXIS,PERIOD,APOGEE,PERIGEE,DECAYED
54760.0,STARLINK-5220,PAYLOAD,2023-10-10 14:42:19,15.08858246,0.000164,53.2182,39.6172,85.5648,274.5531,0.00019801,2.866e-05,0.0,0 STARLINK-5220,1 54760U 22175C   23283.61272324  .00002866  00000-0  19801-3 0  9998,2 54760  53.2182  39.6172 0001640  85.5648 274.5531 15.08858246 46903,6917.825,95.436,540.824,538.555,0.0
54760.0,STARLINK-5220,PAYLOAD,2023-10-10 19:28:28,15.08866707,0.000167,53.2191,38.7236,87.7858,272.3325,0.00050247,7.724e-05,0.0,0 STARLINK-5220,1 54760U 22175C   23283.81143980  .00007724  00000-0  50247-3 0  9992,2 54760  53.2191  38.7236 0001670  87.7858 272.3325 15.08866707 46935,6917.799,95.436,540.819,538.508,0.0
54760.0,STARLINK-5220,PAYLOAD,2023-10-11 11:22:21,15.08826655,0.0001463,53.2193,35.7525,95.3377,264.7782,-0.00023871,-4.084e-05,0.0,0 STARLINK-5220,1 54760U 22175C   23284.47385679 -.00004084  00000-0 -23871-3 0  9999,2 54760  53.2193  35.7525 0001463  95.3377 264.7782 15.08826655 44877,6917.921,95.438,540.798,538.774,0.0
54760.0,STARLINK-5220,PAYLOAD,2023-10-11 14:33:07,15.08837351,0.0001557,53.2204,35.162,93.2416,266.8755,3.585e-05,2.83e-06,0.0,0 STARLINK-5220,1 54760U 22175C   23284.60633478  .00000283  00000-0  35850-4 0  9993,2 54760  53.2204  35.1620 0001557  93.2416 266.8755 15.08837351 47056,6917.888,95.438,540.831,538.676,0.0
54760.0,STARLINK-5220,PAYLOAD,2023-10-12 14:23:54,15.08852173,0.0001232,53.219,30.7016,94.187,265.9263,0.0004962,7.621e-05,0.0,0 STARLINK-5220,1 54760U 22175C   23285.59993297  .00007621  00000-0  49620-3 0  9992,2 54760  53.2190  30.7016 0001232  94.1870 265.9263 15.08852173 47204,6917.843,95.437,540.56,538.856,0.0
54760.0,STARLINK-5220,PAYLOAD,2023-10-12 23:56:13,15.0884527,9.7e-05,53.2181,28.9142,92.702,267.4083,0.00055367,8.536e-05,0.0,0 STARLINK-5220,1 54760U 22175C   23285.99737425  .00008536  00000-0  55367-3 0  9996,2 54760  53.2181  28.9142 0000970  92.7020 267.4083 15.08845270 45106,6917.864,95.437,540.4,539.058,0.0
54760.0,STARLINK-5220,PAYLOAD,2023-10-13 14:14:41,15.0885091,0.0001041,53.2182,26.239,85.1296,274.9815,0.00042591,6.499e-05,0.0,0 STARLINK-5220,1 54760U 22175C   23286.59353479  .00006499  00000-0  42591-3 0  9997,2 54760  53.2182  26.2390 0001041  85.1296 274.9815 15.08850910 47356,6917.847,95.437,540.432,538.992,0.0
54760.0,STARLINK-5220,PAYLOAD,2023-10-14 10:54:41,15.08852961,0.0001093,53.2177,22.3733,109.312,250.799,0.00040859,6.223e-05,0.0,0 STARLINK-5220,1 54760U 22175C   23287.45465002  .00006223  00000-0  40859-3 0  9999,2 54760  53.2177  22.3733 0001093 109.3120 250.7990 15.08852961 45329,6917.841,95.437,540.462,538.95,0.0
54760.0,STARLINK-5220,PAYLOAD,2023-10-14 14:05:27,15.08864023,0.0001546,53.2186,21.7782,68.7152,291.4005,0.00078416,0.00012222,0.0,0 STARLINK-5220,1 54760U 22175C   23287.58712953  .00012222  00000-0  78416-3 0  9999,2 54760  53.2186  21.7782 0001546  68.7152 291.4005 15.08864023 47505,6917.807,95.436,540.741,538.602,0.0
54760.0,STARLINK-5220,PAYLOAD,2023-10-14 15:40:50,15.08871348,0.0001476,53.2185,21.4789,75.375,284.7406,0.00098282,0.00015402,0.0,0 STARLINK-5220,1 54760U 22175C   23287.65336681  .00015402  00000-0  98282-3 0  9993,2 54760  53.2185  21.4789 0001476  75.3750 284.7406 15.08871348 45357,6917.785,95.436,540.671,538.629,0.0
54760.0,STARLINK-5220,PAYLOAD,2023-10-14 23:37:46,15.08837728,0.0001438,53.2179,19.9969,95.1818,264.9338,-0.00016378,-2.893e-05,0.0,0 STARLINK-5220,1 54760U 22175C   23287.98457119 -.00002893  00000-0 -16378-3 0  9997,2 54760  53.2179  19.9969 0001438  95.1818 264.9338 15.08837728 45409,6917.887,95.438,540.747,538.758,0.0
54760.0,STARLINK-5220,PAYLOAD,2023-10-15 12:20:52,15.08816911,0.0001232,53.2174,17.6164,105.2928,254.82,-0.00030704,-5.168e-05,0.0,0 STARLINK-5220,1 54760U 22175C   23288.51450054 -.00005168  00000-0 -30704-3 0  9995,2 54760  53.2174  17.6164 0001232 105.2928 254.8200 15.08816911 45488,6917.951,95.439,540.668,538.964,0.0
54760.0,STARLINK-5220,PAYLOAD,2023-10-16 09:00:54,15.08844218,0.000132,53.2176,13.7497,103.7163,256.3976,0.0012849,0.00020223,0.0,0 STARLINK-5220,1 54760U 22175C   23289.37562938  .00020223  00000-0  12849-2 0  9991,2 54760  53.2176  13.7497 0001320 103.7163 256.3976 15.08844218 45611,6917.867,95.437,540.646,538.819,0.0
54760.0,STARLINK-5220,PAYLOAD,2023-10-16 12:11:40,15.08851866,0.0001355,53.2177,13.1558,97.1846,262.93,0.0014902,0.00023516,0.0,0 STARLINK-5220,1 54760U 22175C   23289.50810877  .00023516  00000-0  14902-2 0  9994,2 54760  53.2177  13.1558 0001355  97.1846 262.9300 15.08851866 47798,6917.844,95.437,540.646,538.772,0.0
54760.0,STARLINK-5220,PAYLOAD,2023-10-17 12:02:27,15.0885621,0.0001395,53.2181,8.6947,98.4844,261.6306,0.00057448,8.871e-05,0.0,0 STARLINK-5220,1 54760U 22175C   23290.50170401  .00008871  00000-0  57448-3 0  9998,2 54760  53.2181   8.6947 0001395  98.4844 261.6306 15.08856210 45787,6917.831,95.437,540.661,538.731,0.0
54760.0,STARLINK-5220,PAYLOAD,2023-10-18 11:53:14,15.08844621,0.0001575,53.2199,4.2379,92.3188,267.7984,8.1248e-05,1.005e-05,0.0,0 STARLINK-5220,1 54760U 22175C   23291.49530500  .00001005  00000-0  81248-4 0  9995,2 54760  53.2199   4.2379 0001575  92.3188 267.7984 15.08844621 45930,6917.866,95.437,540.821,538.642,0.0
54760.0,STARLINK-5220,PAYLOAD,2023-10-18 21:25:33,15.08844393,0.0001572,53.2194,2.4515,89.3915,270.7257,1.4492e-06,-2.65e-06,0.0,0 STARLINK-5220,1 54760U 22175C   23291.89274481 -.00000265  00000-0  14492-5 0  9998,2 54760  53.2194   2.4515 0001572  89.3915 270.7257 15.08844393 48158,6917.867,95.437,540.819,538.644,0.0
54760.0,STARLINK-5220,PAYLOAD,2023-10-19 11:44:00,15.08857166,0.0001631,53.2189,359.7767,90.8364,269.2815,0.0002432,3.586e-05,0.0,0 STARLINK-5220,1 54760U 22175C   23292.48889694  .00003586  00000-0  24320-3 0  9999,2 54760  53.2189 359.7767 0001631  90.8364 269.2815 15.08857166 48245,6917.828,95.436,540.821,538.565,0.0
54760.0,STARLINK-5220,PAYLOAD,2023-10-19 21:16:19,15.08847312,0.0001751,53.2186,357.9901,75.0135,285.1051,0.0001597,2.255e-05,0.0,0 STARLINK-5220,1 54760U 22175C   23292.88634160  .00002255  00000-0  15970-3 0  9992,2 54760  53.2186 357.9901 0001751  75.0135 285.1051 15.08847312 48304,6917.858,95.437,540.934,538.512,0.0
54760.0,STARLINK-5220,PAYLOAD,2023-10-20 03:37:52,15.088422,0.0001908,53.2188,356.8043,86.0201,274.1009,0.0001014,1.326e-05,0.0,0 STARLINK-5220,1 54760U 22175C   23293.15130368  .00001326  00000-0  10140-3 0  9996,2 54760  53.2188 356.8043 0001908  86.0201 274.1009 15.08842200 46187,6917.874,95.437,541.059,538.419,0.0
54760.0,STARLINK-5220,PAYLOAD,2023-10-20 09:59:25,15.08830313,0.0001403,53.2184,355.6123,80.9833,279.1318,-8.2099e-05,-1.594e-05,0.0,0 STARLINK-5220,1 54760U 22175C   23293.41626995 -.00001594  00000-0 -82099-4 0  9993,2 54760  53.2184 355.6123 0001403  80.9833 279.1318 15.08830313 46228,6917.91,95.438,540.746,538.804,0.0
54760.0,STARLINK-5220,PAYLOAD,2023-10-21 11:25:35,15.0884181,0.0001466,53.2187,350.8544,82.5528,277.5631,0.0001647,2.334e-05,0.0,0 STARLINK-5220,1 54760U 22175C   23294.47610863  .00002334  00000-0  16470-3 0  9997,2 54760  53.2187 350.8544 0001466  82.5528 277.5631 15.08841810 46384,6917.875,95.437,540.754,538.726,0.0
54760.0,STARLINK-5220,PAYLOAD,2023-10-21 13:00:58,15.08844823,0.0001476,53.2183,350.5565,76.0659,284.0497,0.00024813,3.664e-05,0.0,0 STARLINK-5220,1 54760U 22175C   23294.54234823  .00003664  00000-0  24813-3 0  9990,2 54760  53.2183 350.5565 0001476  76.0659 284.0497 15.08844823 48555,6917.866,95.437,540.752,538.71,0.0
54760.0,STARLINK-5220,PAYLOAD,2023-10-21 20:57:54,15.08841164,0.0001402,53.2187,349.069,91.48,268.6353,0.00027614,4.11e-05,0.0,0 STARLINK-5220,1 54760U 22175C   23294.87355052  .00004110  00000-0  27614-3 0  9993,2 54760  53.2187 349.0690 0001402  91.4800 268.6353 15.08841164 48609,6917.877,95.437,540.712,538.772,0.0
54760.0,STARLINK-5220,PAYLOAD,2023-10-22 11:16:22,15.08845863,0.0001267,53.2172,346.3938,85.5254,274.5883,0.00028614,4.27e-05,0.0,0 STARLINK-5220,1 54760U 22175C   23295.46970952  .00004270  00000-0  28614-3 0  9999,2 54760  53.2172 346.3938 0001267  85.5254 274.5883 15.08845863 48697,6917.862,95.437,540.604,538.851,0.0
54760.0,STARLINK-5220,PAYLOAD,2023-10-22 20:48:41,15.08845932,0.000142,53.2181,344.6071,87.2327,272.8828,0.00023272,3.418e-05,0.0,0 STARLINK-5220,1 54760U 22175C   23295.86714997  .00003418  00000-0  23272-3 0  9996,2 54760  53.2181 344.6071 0001420  87.2327 272.8828 15.08845932 48751,6917.862,95.437,540.71,538.745,0.0
54760.0,STARLINK-5220,PAYLOAD,2023-10-23 09:31:47,15.08838798,0.0001554,53.2182,342.2285,91.1513,268.9657,6.0994e-05,6.83e-06,0.0,0 STARLINK-5220,1 54760U 22175C   23296.39707357  .00000683  00000-0  60994-4 0  9991,2 54760  53.2182 342.2285 0001554  91.1513 268.9657 15.08838798 46679,6917.884,95.438,540.824,538.674,0.0
54760.0,STARLINK-5220,PAYLOAD,2023-10-23 20:39:29,15.08842553,0.000151,53.2179,340.1473,91.9896,268.1269,0.00014603,2.037e-05,0.0,0 STARLINK-5220,1 54760U 22175C   23296.86075358  .00002037  00000-0  14603-3 0  9992,2 54760  53.2179 340.1473 0001510  91.9896 268.1269 15.08842553 48908,6917.873,95.437,540.782,538.693,0.0
54760.0,STARLINK-5220,PAYLOAD,2023-10-24 09:22:34,15.08844578,0.0001595,53.2176,337.769,97.157,262.9604,0.00020258,2.938e-05,0.0,0 STARLINK-5220,1 54760U 22175C   23297.39067393  .00002938  00000-0  20258-3 0  9994,2 54760  53.2176 337.7690 0001595  97.1570 262.9604 15.08844578 48980,6917.866,95.437,540.835,538.628,0.0
54760.0,STARLINK-5220,PAYLOAD,2023-10-25 09:13:21,15.08844967,0.0001713,53.2178,333.3083,99.8541,260.2645,0.00020709,3.01e-05,0.0,0 STARLINK-5220,1 54760U 22175C   23298.38427369  .00003010  00000-0  20709-3 0  9990,2 54760  53.2178 333.3083 0001713  99.8541 260.2645 15.08844967 46974,6917.865,95.437,540.915,538.545,0.0
